{"type": "FeatureCollection", "features": [{"type": "Feature", "geometry": {"type": "Point", "coordinates": [181.317, -18.332]}, "properties": {"uid": "seabirds:aiwa-island", "name": "Aiwa Island", "species": 1, "surveys": 1, "top_category": "LC", "threatened": 0}}, {"type": "Feature", "geometry": {"type": "Point", "coordinates": [177.641, -18.48]}, "properties": {"uid": "seabirds:bird-island", "name": "Bird Island", "species": 3, "surveys": 3, "top_category": "LC", "threatened": 0}}, {"type": "Feature", "geometry": {"type": "Point", "coordinates": [181.693, -17.886]}, "properties": {"uid": "seabirds:booby-rock", "name": "Booby Rock", "species": 1, "surveys": 1, "top_category": "LC", "threatened": 0}}, {"type": "Feature", "geometry": {"type": "Point", "coordinates": [181.214, -17.282]}, "properties": {"uid": "seabirds:cikobia-i-lau", "name": "Cikobia-i-lau", "species": 1, "surveys": 1, "top_category": "LC", "threatened": 0}}, {"type": "Feature", "geometry": {"type": "Point", "coordinates": [181.417, -19.141]}, "properties": {"uid": "seabirds:fulaga", "name": "Fulaga", "species": 1, "surveys": 1, "top_category": "LC", "threatened": 0}}, {"type": "Feature", "geometry": {"type": "Point", "coordinates": [179.346, -18.003]}, "properties": {"uid": "seabirds:gau", "name": "Gau", "species": 3, "surveys": 10, "top_category": "CR", "threatened": 2}}, {"type": "Feature", "geometry": {"type": "Point", "coordinates": [177.15, -12.522]}, "properties": {"uid": "seabirds:hatana-island", "name": "Hatana Island", "species": 1, "surveys": 2, "top_category": "LC", "threatened": 0}}, {"type": "Feature", "geometry": {"type": "Point", "coordinates": [177.091, -12.504]}, "properties": {"uid": "seabirds:hau-meamea", "name": "Hau Mea’me’a", "species": 1, "surveys": 1, "top_category": "LC", "threatened": 0}}, {"type": "Feature", "geometry": {"type": "Point", "coordinates": [177.15, -12.522]}, "properties": {"uid": "seabirds:hofliua-island", "name": "Hofliua Island", "species": 1, "surveys": 1, "top_category": "LC", "threatened": 0}}, {"type": "Feature", "geometry": {"type": "Point", "coordinates": [181.319, -20.607]}, "properties": {"uid": "seabirds:island-1", "name": "Island 1", "species": 7, "surveys": 7, "top_category": "LC", "threatened": 0}}, {"type": "Feature", "geometry": {"type": "Point", "coordinates": [181.314, -20.606]}, "properties": {"uid": "seabirds:island-2", "name": "Island 2", "species": 4, "surveys": 4, "top_category": "LC", "threatened": 0}}, {"type": "Feature", "geometry": {"type": "Point", "coordinates": [181.303, -20.604]}, "properties": {"uid": "seabirds:island-3", "name": "Island 3", "species": 4, "surveys": 4, "top_category": "LC", "threatened": 0}}, {"type": "Feature", "geometry": {"type": "Point", "coordinates": [181.314, -20.602]}, "properties": {"uid": "seabirds:island-4", "name": "Island 4", "species": 4, "surveys": 4, "top_category": "LC", "threatened": 0}}, {"type": "Feature", "geometry": {"type": "Point", "coordinates": [181.045, -18.955]}, "properties": {"uid": "seabirds:kabara", "name": "Kabara", "species": 2, "surveys": 2, "top_category": "LC", "threatened": 0}}, {"type": "Feature", "geometry": {"type": "Point", "coordinates": [178.523, -18.891]}, "properties": {"uid": "seabirds:kadavu", "name": "Kadavu", "species": 3, "surveys": 7, "top_category": "EN", "threatened": 2}}, {"type": "Feature", "geometry": {"type": "Point", "coordinates": [177.098, -17.506]}, "properties": {"uid": "seabirds:kadomo", "name": "Kadomo", "species": 1, "surveys": 1, "top_category": "LC", "threatened": 0}}, {"type": "Feature", "geometry": {"type": "Point", "coordinates": [180.849, -17.264]}, "properties": {"uid": "seabirds:kanacea", "name": "Kanacea", "species": 2, "surveys": 2, "top_category": "LC", "threatened": 0}}, {"type": "Feature", "geometry": {"type": "Point", "coordinates": [180.979, -17.059]}, "properties": {"uid": "seabirds:kibobolevu", "name": "Kibobolevu", "species": 3, "surveys": 6, "top_category": "LC", "threatened": 0}}, {"type": "Feature", "geometry": {"type": "Point", "coordinates": [179.4, -17.308]}, "properties": {"uid": "seabirds:koro", "name": "Koro", "species": 1, "surveys": 3, "top_category": "VU", "threatened": 1}}, {"type": "Feature", "geometry": {"type": "Point", "coordinates": [181.522, -18.702]}, "properties": {"uid": "seabirds:koroni", "name": "Koroni", "species": 1, "surveys": 1, "top_category": "LC", "threatened": 0}}, {"type": "Feature", "geometry": {"type": "Point", "coordinates": [180.368, -17.28]}, "properties": {"uid": "seabirds:korosiga", "name": "Korosiga", "species": 5, "surveys": 9, "top_category": "LC", "threatened": 0}}, {"type": "Feature", "geometry": {"type": "Point", "coordinates": [181.206, -18.211]}, "properties": {"uid": "seabirds:lakeba", "name": "Lakeba", "species": 1, "surveys": 2, "top_category": "LC", "threatened": 0}}, {"type": "Feature", "geometry": {"type": "Point", "coordinates": [178.721, -16.567]}, "properties": {"uid": "seabirds:late-i-viti-island", "name": "Late-i-Viti Island", "species": 3, "surveys": 3, "top_category": "LC", "threatened": 0}}, {"type": "Feature", "geometry": {"type": "Point", "coordinates": [177.098, -17.506]}, "properties": {"uid": "seabirds:luvuka-island", "name": "Luvuka Island", "species": 1, "surveys": 1, "top_category": "LC", "threatened": 0}}, {"type": "Feature", "geometry": {"type": "Point", "coordinates": [177.757, -17.973]}, "properties": {"uid": "seabirds:mabualau", "name": "Mabualau", "species": 5, "surveys": 23, "top_category": "LC", "threatened": 0}}, {"type": "Feature", "geometry": {"type": "Point", "coordinates": [180.842, -17.448]}, "properties": {"uid": "seabirds:mago", "name": "Mago", "species": 1, "surveys": 1, "top_category": "LC", "threatened": 0}}, {"type": "Feature", "geometry": {"type": "Point", "coordinates": [180.801, -17.118]}, "properties": {"uid": "seabirds:malima-lailai", "name": "Malima Lailai", "species": 1, "surveys": 1, "top_category": "LC", "threatened": 0}}, {"type": "Feature", "geometry": {"type": "Point", "coordinates": [180.808, -17.123]}, "properties": {"uid": "seabirds:malima-levu", "name": "Malima Levu", "species": 1, "surveys": 1, "top_category": "LC", "threatened": 0}}, {"type": "Feature", "geometry": {"type": "Point", "coordinates": [181.304, -20.674]}, "properties": {"uid": "seabirds:mana-island", "name": "Mana Island", "species": 2, "surveys": 2, "top_category": "LC", "threatened": 0}}, {"type": "Feature", "geometry": {"type": "Point", "coordinates": [177.098, -17.506]}, "properties": {"uid": "seabirds:matamanoa-island", "name": "Matamanoa Island", "species": 1, "surveys": 2, "top_category": "LC", "threatened": 0}}, {"type": "Feature", "geometry": {"type": "Point", "coordinates": [179.761, -19.158]}, "properties": {"uid": "seabirds:matuku", "name": "Matuku", "species": 2, "surveys": 3, "top_category": "VU", "threatened": 1}}, {"type": "Feature", "geometry": {"type": "Point", "coordinates": [179.888, -18.6]}, "properties": {"uid": "seabirds:moala", "name": "Moala", "species": 1, "surveys": 3, "top_category": "VU", "threatened": 1}}, {"type": "Feature", "geometry": {"type": "Point", "coordinates": [177.098, -17.506]}, "properties": {"uid": "seabirds:monu", "name": "Monu", "species": 1, "surveys": 1, "top_category": "LC", "threatened": 0}}, {"type": "Feature", "geometry": {"type": "Point", "coordinates": [177.098, -17.506]}, "properties": {"uid": "seabirds:monuriki", "name": "Monuriki", "species": 1, "surveys": 6, "top_category": "LC", "threatened": 0}}, {"type": "Feature", "geometry": {"type": "Point", "coordinates": [181.651, -18.956]}, "properties": {"uid": "seabirds:naiabo-island", "name": "Naiabo Island", "species": 8, "surveys": 11, "top_category": "LC", "threatened": 0}}, {"type": "Feature", "geometry": {"type": "Point", "coordinates": [179.1, -17.11]}, "properties": {"uid": "seabirds:namena", "name": "Namena", "species": 5, "surveys": 11, "top_category": "LC", "threatened": 0}}, {"type": "Feature", "geometry": {"type": "Point", "coordinates": [180.547, -16.719]}, "properties": {"uid": "seabirds:nanuku-levu", "name": "Nanuku Levu", "species": 1, "surveys": 1, "top_category": "LC", "threatened": 0}}, {"type": "Feature", "geometry": {"type": "Point", "coordinates": [177.553, -16.685]}, "properties": {"uid": "seabirds:nanuya-i-ra-island", "name": "Nanuya-i-Ra Island", "species": 3, "surveys": 3, "top_category": "LC", "threatened": 0}}, {"type": "Feature", "geometry": {"type": "Point", "coordinates": [180.384, -17.276]}, "properties": {"uid": "seabirds:nasaqa", "name": "Nasaqa", "species": 1, "surveys": 1, "top_category": "LC", "threatened": 0}}, {"type": "Feature", "geometry": {"type": "Point", "coordinates": [178.765, -17.741]}, "properties": {"uid": "seabirds:nasautabu", "name": "Nasautabu", "species": 1, "surveys": 1, "top_category": "LC", "threatened": 0}}, {"type": "Feature", "geometry": {"type": "Point", "coordinates": [177.098, -17.506]}, "properties": {"uid": "seabirds:nggalito-island", "name": "Nggalito Island", "species": 1, "surveys": 1, "top_category": "LC", "threatened": 0}}, {"type": "Feature", "geometry": {"type": "Point", "coordinates": [177.641, -18.48]}, "properties": {"uid": "seabirds:nuki-nuki-island", "name": "Nuki Nuki Island", "species": 2, "surveys": 2, "top_category": "LC", "threatened": 0}}, {"type": "Feature", "geometry": {"type": "Point", "coordinates": [181.358, -17.206]}, "properties": {"uid": "seabirds:nuku-i-cikobia", "name": "Nuku-i-Cikobia", "species": 6, "surveys": 12, "top_category": "LC", "threatened": 0}}, {"type": "Feature", "geometry": {"type": "Point", "coordinates": [180.748, -16.302]}, "properties": {"uid": "seabirds:nukubasaqa", "name": "Nukubasaqa", "species": 6, "surveys": 39, "top_category": "LC", "threatened": 0}}, {"type": "Feature", "geometry": {"type": "Point", "coordinates": [180.731, -16.31]}, "properties": {"uid": "seabirds:nukupureti", "name": "Nukupureti", "species": 8, "surveys": 26, "top_category": "LC", "threatened": 0}}, {"type": "Feature", "geometry": {"type": "Point", "coordinates": [180.582, -16.334]}, "properties": {"uid": "seabirds:nukusemanu", "name": "Nukusemanu", "species": 7, "surveys": 16, "top_category": "LC", "threatened": 0}}, {"type": "Feature", "geometry": {"type": "Point", "coordinates": [181.588, -19.175]}, "properties": {"uid": "seabirds:ogea", "name": "Ogea", "species": 1, "surveys": 1, "top_category": "LC", "threatened": 0}}, {"type": "Feature", "geometry": {"type": "Point", "coordinates": [178.523, -18.891]}, "properties": {"uid": "seabirds:ono", "name": "Ono", "species": 1, "surveys": 2, "top_category": "LC", "threatened": 0}}, {"type": "Feature", "geometry": {"type": "Point", "coordinates": [181.261, -20.652]}, "properties": {"uid": "seabirds:ono-i-lau", "name": "Ono-i-Lau", "species": 2, "surveys": 3, "top_category": "LC", "threatened": 0}}, {"type": "Feature", "geometry": {"type": "Point", "coordinates": [178.765, -17.741]}, "properties": {"uid": "seabirds:ovalau", "name": "Ovalau", "species": 1, "surveys": 1, "top_category": "VU", "threatened": 1}}, {"type": "Feature", "geometry": {"type": "Point", "coordinates": [180.839, -16.09]}, "properties": {"uid": "seabirds:qelelevu", "name": "Qelelevu", "species": 4, "surveys": 9, "top_category": "LC", "threatened": 0}}, {"type": "Feature", "geometry": {"type": "Point", "coordinates": [180.96, -17.168]}, "properties": {"uid": "seabirds:qilaqila-island", "name": "Qilaqila Island", "species": 1, "surveys": 2, "top_category": "LC", "threatened": 0}}, {"type": "Feature", "geometry": {"type": "Point", "coordinates": [177.091, -12.504]}, "properties": {"uid": "seabirds:rotuma", "name": "Rotuma", "species": 2, "surveys": 2, "top_category": "LC", "threatened": 0}}, {"type": "Feature", "geometry": {"type": "Point", "coordinates": [178.284, -16.662]}, "properties": {"uid": "seabirds:sail-rock", "name": "Sail Rock", "species": 1, "surveys": 1, "top_category": "LC", "threatened": 0}}, {"type": "Feature", "geometry": {"type": "Point", "coordinates": [178.762, -17.936]}, "properties": {"uid": "seabirds:saqata-rocks", "name": "Saqata Rocks", "species": 4, "surveys": 4, "top_category": "LC", "threatened": 0}}, {"type": "Feature", "geometry": {"type": "Point", "coordinates": [179.816, -16.746]}, "properties": {"uid": "seabirds:sausau-island", "name": "Sausau Island", "species": 1, "surveys": 1, "top_category": "LC", "threatened": 0}}, {"type": "Feature", "geometry": {"type": "Point", "coordinates": [181.172, -17.162]}, "properties": {"uid": "seabirds:sovulevu", "name": "Sovulevu", "species": 2, "surveys": 2, "top_category": "LC", "threatened": 0}}, {"type": "Feature", "geometry": {"type": "Point", "coordinates": [181.184, -17.161]}, "properties": {"uid": "seabirds:sovuloma", "name": "Sovuloma", "species": 3, "surveys": 4, "top_category": "LC", "threatened": 0}}, {"type": "Feature", "geometry": {"type": "Point", "coordinates": [180.82, -16.082]}, "properties": {"uid": "seabirds:tainibeka", "name": "Tainibeka", "species": 3, "surveys": 10, "top_category": "LC", "threatened": 0}}, {"type": "Feature", "geometry": {"type": "Point", "coordinates": [180.832, -16.084]}, "properties": {"uid": "seabirds:tauraria", "name": "Tauraria", "species": 4, "surveys": 15, "top_category": "LC", "threatened": 0}}, {"type": "Feature", "geometry": {"type": "Point", "coordinates": [180.072, -16.814]}, "properties": {"uid": "seabirds:taveuni", "name": "Taveuni", "species": 2, "surveys": 3, "top_category": "VU", "threatened": 1}}, {"type": "Feature", "geometry": {"type": "Point", "coordinates": [180.071, -15.736]}, "properties": {"uid": "seabirds:thikombia-i-re", "name": "Thikombia-i-Re", "species": 2, "surveys": 3, "top_category": "LC", "threatened": 0}}, {"type": "Feature", "geometry": {"type": "Point", "coordinates": [177.098, -17.506]}, "properties": {"uid": "seabirds:tivua-island", "name": "Tivua Island", "species": 2, "surveys": 2, "top_category": "LC", "threatened": 0}}, {"type": "Feature", "geometry": {"type": "Point", "coordinates": [180.143, -18.991]}, "properties": {"uid": "seabirds:totoya", "name": "Totoya", "species": 2, "surveys": 4, "top_category": "VU", "threatened": 1}}, {"type": "Feature", "geometry": {"type": "Point", "coordinates": [181.152, -21.037]}, "properties": {"uid": "seabirds:tuvana", "name": "Tuvana", "species": 3, "surveys": 3, "top_category": "LC", "threatened": 0}}, {"type": "Feature", "geometry": {"type": "Point", "coordinates": [181.031, -17.231]}, "properties": {"uid": "seabirds:vanua-balavu", "name": "Vanua Balavu", "species": 2, "surveys": 2, "top_category": "VU", "threatened": 1}}, {"type": "Feature", "geometry": {"type": "Point", "coordinates": [179.244, -16.602]}, "properties": {"uid": "seabirds:vanua-levu", "name": "Vanua Levu", "species": 1, "surveys": 1, "top_category": "LC", "threatened": 0}}, {"type": "Feature", "geometry": {"type": "Point", "coordinates": [181.585, -18.004]}, "properties": {"uid": "seabirds:vanualailai", "name": "Vanualailai", "species": 2, "surveys": 2, "top_category": "LC", "threatened": 0}}, {"type": "Feature", "geometry": {"type": "Point", "coordinates": [181.551, -18.012]}, "properties": {"uid": "seabirds:vanuamasi", "name": "Vanuamasi", "species": 5, "surveys": 8, "top_category": "LC", "threatened": 0}}, {"type": "Feature", "geometry": {"type": "Point", "coordinates": [181.758, -19.817]}, "properties": {"uid": "seabirds:vatoa", "name": "Vatoa", "species": 1, "surveys": 1, "top_category": "LC", "threatened": 0}}, {"type": "Feature", "geometry": {"type": "Point", "coordinates": [178.768, -17.38]}, "properties": {"uid": "seabirds:vatu-i-cake", "name": "Vatu-i-Cake", "species": 1, "surveys": 1, "top_category": "LC", "threatened": 0}}, {"type": "Feature", "geometry": {"type": "Point", "coordinates": [178.466, -17.316]}, "properties": {"uid": "seabirds:vatu-i-ra-island", "name": "Vatu-i-ra Island", "species": 9, "surveys": 112, "top_category": "LC", "threatened": 0}}, {"type": "Feature", "geometry": {"type": "Point", "coordinates": [179.816, -16.746]}, "properties": {"uid": "seabirds:vatukatolu", "name": "Vatukatolu", "species": 1, "surveys": 1, "top_category": "LC", "threatened": 0}}, {"type": "Feature", "geometry": {"type": "Point", "coordinates": [178.63, -17.782]}, "properties": {"uid": "seabirds:vatulami", "name": "Vatulami", "species": 1, "surveys": 1, "top_category": "LC", "threatened": 0}}, {"type": "Feature", "geometry": {"type": "Point", "coordinates": [177.641, -18.48]}, "properties": {"uid": "seabirds:vatulele", "name": "Vatulele", "species": 6, "surveys": 9, "top_category": "LC", "threatened": 0}}, {"type": "Feature", "geometry": {"type": "Point", "coordinates": [181.186, -17.561]}, "properties": {"uid": "seabirds:vekai-island", "name": "Vekai Island", "species": 1, "surveys": 1, "top_category": "LC", "threatened": 0}}, {"type": "Feature", "geometry": {"type": "Point", "coordinates": [180.592, -15.952]}, "properties": {"uid": "seabirds:vetauua", "name": "Vetauua", "species": 6, "surveys": 15, "top_category": "LC", "threatened": 0}}, {"type": "Feature", "geometry": {"type": "Point", "coordinates": [177.741, -17.393]}, "properties": {"uid": "seabirds:viti-levu", "name": "Viti Levu", "species": 2, "surveys": 12, "top_category": "VU", "threatened": 1}}, {"type": "Feature", "geometry": {"type": "Point", "coordinates": [177.098, -17.506]}, "properties": {"uid": "seabirds:vunivadra-island", "name": "Vunivadra Island", "species": 1, "surveys": 1, "top_category": "LC", "threatened": 0}}, {"type": "Feature", "geometry": {"type": "Point", "coordinates": [180.898, -16.748]}, "properties": {"uid": "seabirds:wailagilala-island", "name": "Wailagilala Island", "species": 7, "surveys": 15, "top_category": "LC", "threatened": 0}}, {"type": "Feature", "geometry": {"type": "Point", "coordinates": [178.999, -17.61]}, "properties": {"uid": "seabirds:wakaya", "name": "Wakaya", "species": 1, "surveys": 1, "top_category": "LC", "threatened": 0}}, {"type": "Feature", "geometry": {"type": "Point", "coordinates": [177.553, -16.685]}, "properties": {"uid": "seabirds:waya", "name": "Waya", "species": 1, "surveys": 1, "top_category": "LC", "threatened": 0}}, {"type": "Feature", "geometry": {"type": "Point", "coordinates": [177.236, -17.383]}, "properties": {"uid": "seabirds:white-rock", "name": "White Rock", "species": 4, "surveys": 5, "top_category": "LC", "threatened": 0}}, {"type": "Feature", "geometry": {"type": "Point", "coordinates": [177.755, -16.66]}, "properties": {"uid": "seabirds:yalewa-kalou", "name": "Yalewa Kalou", "species": 1, "surveys": 1, "top_category": "LC", "threatened": 0}}, {"type": "Feature", "geometry": {"type": "Point", "coordinates": [178.523, -18.891]}, "properties": {"uid": "seabirds:yambu-island", "name": "Yambu Island", "species": 4, "surveys": 5, "top_category": "LC", "threatened": 0}}, {"type": "Feature", "geometry": {"type": "Point", "coordinates": [181.316, -20.609]}, "properties": {"uid": "seabirds:yanuya", "name": "Yanuya", "species": 3, "surveys": 6, "top_category": "LC", "threatened": 0}}, {"type": "Feature", "geometry": {"type": "Point", "coordinates": [181.345, -17.734]}, "properties": {"uid": "seabirds:yaroua", "name": "Yaroua", "species": 1, "surveys": 1, "top_category": "LC", "threatened": 0}}, {"type": "Feature", "geometry": {"type": "Point", "coordinates": [177.553, -16.685]}, "properties": {"uid": "seabirds:yawini-island", "name": "Yawini Island", "species": 1, "surveys": 1, "top_category": "LC", "threatened": 0}}, {"type": "Feature", "geometry": {"type": "Point", "coordinates": [177.553, -16.685]}, "properties": {"uid": "seabirds:yawini-island-0", "name": "Yawini Island", "species": 1, "surveys": 1, "top_category": "LC", "threatened": 0}}]}