{
"type": "FeatureCollection",
"name": "Fiji wetlands",
"crs": { "type": "name", "properties": { "name": "urn:ogc:def:crs:OGC:1.3:CRS84" } },
"features": [
{"type":"Feature","properties":{"site_name":"Mangroves of the Rewa Delta","wetland_type":"Mangrove","latitude":-17.996,"longitude":178.62373333333332,"source_coordinates":"S 17°59.760' E 178°37.424'"},"geometry":{"type":"Point","coordinates":[178.62373333333332,-17.996]}},
{"type":"Feature","properties":{"site_name":"Mangroves of the Rewa Delta","wetland_type":"Mangrove","latitude":-18.137127777777778,"longitude":178.52592222222225,"source_coordinates":"S 18°08'13.66' E 178°31'33.32'**"},"geometry":{"type":"Point","coordinates":[178.525922222222249,-18.137127777777778]}},
{"type":"Feature","properties":{"site_name":"Bonatoa swamp","wetland_type":"Peat Swamp","latitude":-18.0779,"longitude":178.55753333333334,"source_coordinates":"S 18°04.674' E 178°33.452'"},"geometry":{"type":"Point","coordinates":[178.557533333333339,-18.0779]}},
{"type":"Feature","properties":{"site_name":"Bonatoa swamp","wetland_type":"Peat Swamp","latitude":-18.0935,"longitude":178.54763333333332,"source_coordinates":"S 18°05.610' E 178°32.858'**"},"geometry":{"type":"Point","coordinates":[178.547633333333323,-18.0935]}},
{"type":"Feature","properties":{"site_name":"Melimeli swamp","wetland_type":"Peat Swamp","latitude":-18.192616666666666,"longitude":178.18998333333334,"source_coordinates":"S 18°11.557' E 178°11.399'"},"geometry":{"type":"Point","coordinates":[178.189983333333345,-18.192616666666666]}},
{"type":"Feature","properties":{"site_name":"Melimeli swamp","wetland_type":"Peat Swamp","latitude":-18.163316666666667,"longitude":178.19651666666667,"source_coordinates":"S 18°09.799' E 178°11.791'**"},"geometry":{"type":"Point","coordinates":[178.196516666666668,-18.163316666666667]}},
{"type":"Feature","properties":{"site_name":"Vunimoli swamp","wetland_type":"Peat Swamp","latitude":-18.23385,"longitude":178.07431666666668,"source_coordinates":"S 18°14.031' E 178°04.459'"},"geometry":{"type":"Point","coordinates":[178.074316666666675,-18.23385]}},
{"type":"Feature","properties":{"site_name":"Mangroves of Nadi Bay","wetland_type":"Mangrove","latitude":-17.81985,"longitude":177.39181666666667,"source_coordinates":"S 17°49.191' E 177°23.509'"},"geometry":{"type":"Point","coordinates":[177.391816666666671,-17.81985]}},
{"type":"Feature","properties":{"site_name":"Mangroves of the Ba delta","wetland_type":"Mangrove","latitude":-17.479116666666666,"longitude":177.6664,"source_coordinates":"S 17°28.747' E 177°39.984'"},"geometry":{"type":"Point","coordinates":[177.6664,-17.479116666666666]}},
{"type":"Feature","properties":{"site_name":"Vaturu dam","wetland_type":"Synthetic Dam","latitude":-17.75065,"longitude":177.66591666666667,"source_coordinates":"S 17°45.039' E 177°39.955'"},"geometry":{"type":"Point","coordinates":[177.665916666666675,-17.75065]}},
{"type":"Feature","properties":{"site_name":"Nadrau swamp","wetland_type":"Peat Swamp","latitude":-17.686716666666666,"longitude":177.97605,"source_coordinates":"S 17°41.203' E 177°58.563'"},"geometry":{"type":"Point","coordinates":[177.97605,-17.686716666666666]}},
{"type":"Feature","properties":{"site_name":"Monasavu Dam","wetland_type":"Synthetic Dam","latitude":-17.7111,"longitude":178.0167,"source_coordinates":"S 17°42.666' E 178°01.002'"},"geometry":{"type":"Point","coordinates":[178.0167,-17.7111]}},
{"type":"Feature","properties":{"site_name":"Mangroves of the Labasa delta","wetland_type":"Mangrove","latitude":-16.400833333333335,"longitude":179.37033333333332,"source_coordinates":"S 16°24.05 E 179°22.22"},"geometry":{"type":"Point","coordinates":[179.370333333333321,-16.400833333333335]}},
{"type":"Feature","properties":{"site_name":"Lake Tagimoucia","wetland_type":"Freshwater Lake","latitude":-16.827075,"longitude":-179.938575,"source_coordinates":"S 16°49'37.47\" W 179°56'18.87\""},"geometry":{"type":"Point","coordinates":[-179.938575,-16.827075]}},
{"type":"Feature","properties":{"site_name":"Waidradra palms","wetland_type":"Riverine Forest","latitude":-17.940433333333335,"longitude":178.37545,"source_coordinates":"S 17°56.426' E 178°22.527'"},"geometry":{"type":"Point","coordinates":[178.37545,-17.940433333333335]}},
{"type":"Feature","properties":{"site_name":"Waidradra palms","wetland_type":"Riverine Forest","latitude":-17.907016666666667,"longitude":178.3407,"source_coordinates":"S 17°54.421' E 178°20.442'"},"geometry":{"type":"Point","coordinates":[178.3407,-17.907016666666667]}},
{"type":"Feature","properties":{"site_name":"Vatulele pools","wetland_type":"Brackish Pond","latitude":-18.539383333333333,"longitude":177.63918333333334,"source_coordinates":"S 18°32.363' E 177°38.351'"},"geometry":{"type":"Point","coordinates":[177.639183333333335,-18.539383333333333]}},
{"type":"Feature","properties":{"site_name":"Moturiki swamp","wetland_type":"Brackish Swamp","latitude":-17.769033333333333,"longitude":178.76445,"source_coordinates":"S 17°46.142' E 178°45.867'"},"geometry":{"type":"Point","coordinates":[178.76445,-17.769033333333333]}},
{"type":"Feature","properties":{"site_name":"Lake Rovurovu","wetland_type":"Freshwater Lake","latitude":-17.769033333333333,"longitude":178.76445,"source_coordinates":"S 17°46.142' E 178°45.867'"},"geometry":{"type":"Point","coordinates":[178.76445,-17.769033333333333]}},
{"type":"Feature","properties":{"site_name":"Pond headwater of Dranobaba river","wetland_type":"Freshwater Pond","latitude":-16.6319,"longitude":178.94255,"source_coordinates":"S 16°37.914 E 178°56.553"},"geometry":{"type":"Point","coordinates":[178.94255,-16.6319]}},
{"type":"Feature","properties":{"site_name":"Nairirileka swamp","wetland_type":"Brackish Swamp","latitude":-16.690633333333334,"longitude":179.25958333333332,"source_coordinates":"S 16°41.438 E 179°15.575"},"geometry":{"type":"Point","coordinates":[179.259583333333325,-16.690633333333334]}},
{"type":"Feature","properties":{"site_name":"Drano yalewa and Drano tagane","wetland_type":"Peat Swamp","latitude":-16.689883333333334,"longitude":179.87671666666665,"source_coordinates":"S 16°41.393 E 179°52.603"},"geometry":{"type":"Point","coordinates":[179.876716666666653,-16.689883333333334]}},
{"type":"Feature","properties":{"site_name":"Doidoi swamp","wetland_type":"Freshwater Swamp","latitude":-16.508716666666668,"longitude":178.96526666666668,"source_coordinates":"S 16°30.523 E 178°57.916"},"geometry":{"type":"Point","coordinates":[178.965266666666679,-16.508716666666668]}},
{"type":"Feature","properties":{"site_name":"Swamps of the upper Dreketi river","wetland_type":"Freshwater Swamp","latitude":-16.502983333333333,"longitude":179.05,"source_coordinates":"S 16°30.179 E 179°03"},"geometry":{"type":"Point","coordinates":[179.05,-16.502983333333333]}},
{"type":"Feature","properties":{"site_name":"Swamps of the upper Dreketi river","wetland_type":"Freshwater Swamp","latitude":-16.516666666666666,"longitude":179.05,"source_coordinates":"S 16°31 E 179°03"},"geometry":{"type":"Point","coordinates":[179.05,-16.516666666666666]}},
{"type":"Feature","properties":{"site_name":"Swamps of the upper Dreketi river","wetland_type":"Freshwater Swamp","latitude":-16.510888888888889,"longitude":179.07319444444445,"source_coordinates":"S 16°30'39.2 E** 179°04'23.5''"},"geometry":{"type":"Point","coordinates":[179.073194444444454,-16.510888888888889]}},
{"type":"Feature","properties":{"site_name":"Taketakelo pond","wetland_type":"Freshwater Pond","latitude":-16.5871,"longitude":179.10475,"source_coordinates":"S 16°35.226 E 179°06.285"},"geometry":{"type":"Point","coordinates":[179.10475,-16.5871]}},
{"type":"Feature","properties":{"site_name":"Ponds along the Dreketi river","wetland_type":"Freshwater Pond","latitude":-16.561166666666665,"longitude":179.1185,"source_coordinates":"S 16°32.17.90 E 179°07.11"},"geometry":{"type":"Point","coordinates":[179.1185,-16.561166666666665]}},
{"type":"Feature","properties":{"site_name":"Balawa swamp","wetland_type":"Brackish Swamp","latitude":-16.240233333333332,"longitude":179.77473333333333,"source_coordinates":"S 16°14.414 E 179°46.484"},"geometry":{"type":"Point","coordinates":[179.77473333333333,-16.240233333333332]}},
{"type":"Feature","properties":{"site_name":"Gasauva salt lagoon","wetland_type":"Salt Lake","latitude":-16.288666666666668,"longitude":-179.35641666666666,"source_coordinates":"S 16°17.320 E 179°98.615"},"geometry":{"type":"Point","coordinates":[-179.356416666666661,-16.288666666666668]}},
{"type":"Feature","properties":{"site_name":"Lake drano","wetland_type":"Brackish Lake","latitude":-16.150466666666667,"longitude":179.9878,"source_coordinates":"S 16°09.028 E 179°59.268"},"geometry":{"type":"Point","coordinates":[179.9878,-16.150466666666667]}},
{"type":"Feature","properties":{"site_name":"Lake Navesiwaka","wetland_type":"Freshwater Lake","latitude":-16.411566666666666,"longitude":179.66848333333334,"source_coordinates":"S 16°24.694 E 179°40.109"},"geometry":{"type":"Point","coordinates":[179.668483333333342,-16.411566666666666]}},
{"type":"Feature","properties":{"site_name":"Galogalo Salt Lake","wetland_type":"Salt Lake","latitude":-16.770333333333333,"longitude":179.52033333333333,"source_coordinates":"S 16°46.22 E 179°31.22"},"geometry":{"type":"Point","coordinates":[179.520333333333326,-16.770333333333333]}},
{"type":"Feature","properties":{"site_name":"Lake on Sogatiri river","wetland_type":"Lake","latitude":-16.697583333333334,"longitude":179.26548333333332,"source_coordinates":"S 16°41.855 E 179°15.929"},"geometry":{"type":"Point","coordinates":[179.265483333333322,-16.697583333333334]}},
{"type":"Feature","properties":{"site_name":"Un-named wetland","wetland_type":"Freshwater Swamp","latitude":-16.868816666666667,"longitude":178.91978333333333,"source_coordinates":"S 16°52.129 E 178°55.187"},"geometry":{"type":"Point","coordinates":[178.919783333333328,-16.868816666666667]}},
{"type":"Feature","properties":{"site_name":"Muanicula marsh","wetland_type":"Salt Marsh","latitude":-16.892944444444446,"longitude":178.99266666666665,"source_coordinates":"S 16°53'34.6'' E 178°59'33.6''"},"geometry":{"type":"Point","coordinates":[178.992666666666651,-16.892944444444446]}},
{"type":"Feature","properties":{"site_name":"Delaimoala lake","wetland_type":"Salt Lake","latitude":-18.59697222222222,"longitude":179.89334444444444,"source_coordinates":"S** 18°35'49.10' E 179°53'36.04''"},"geometry":{"type":"Point","coordinates":[179.893344444444438,-18.59697222222222]}},
{"type":"Feature","properties":{"site_name":"Tuvuca lakes","wetland_type":"Lake","latitude":-17.66758888888889,"longitude":-178.82204166666665,"source_coordinates":"S 17°40'3.32\" W 178°49'19.35\""},"geometry":{"type":"Point","coordinates":[-178.822041666666649,-17.66758888888889]}},
{"type":"Feature","properties":{"site_name":"Vuaqava Salt Lake","wetland_type":"Salt Lake","latitude":-18.866736111111113,"longitude":-178.89983611111111,"source_coordinates":"S 18°52'00.25'' W 178°53'59.41''"},"geometry":{"type":"Point","coordinates":[-178.899836111111114,-18.866736111111113]}},
{"type":"Feature","properties":{"site_name":"Mangroves of Fulaga, Lau","wetland_type":"Mangrove","latitude":-19.144008333333332,"longitude":-178.599125,"source_coordinates":"S 19°08'38.43'' W 178°35'56.85''"},"geometry":{"type":"Point","coordinates":[-178.599125,-19.144008333333332]}}
]
}
